BEIDOU-2 IGSO-1         
1 36828U 10036A   26086.63883915 -.00000150  00000+0  00000+0 0  9997
2 36828  54.2909 163.6978 0057461 222.7538 133.1758  1.00295665 57273
BEIDOU-2 G4             
1 37210U 10057A   26095.25585002 -.00000110  00000+0  00000+0 0  9996
2 37210   3.4665  69.3575 0007213 215.5538 160.7597  1.00271647 56561
BEIDOU-2 IGSO-2         
1 37256U 10068A   26086.44836399 -.00000175  00000+0  00000+0 0  9998
2 37256  47.6922 272.8379 0048070 212.2935 326.6285  1.00251076 55976
BEIDOU-2 IGSO-3         
1 37384U 11013A   26095.26752999 -.00000186  00000+0  00000+0 0  9996
2 37384  62.3143  40.8400 0034292 189.3814 167.2909  1.00285678 54927
BEIDOU-2 IGSO-4         
1 37763U 11038A   26087.66258249 -.00000109  00000+0  00000+0 0  9993
2 37763  54.5871 166.4040 0156581 231.4212 120.2889  1.00260433 53838
BEIDOU-2 IGSO-5         
1 37948U 11073A   26093.97039089 -.00000174  00000+0  00000+0 0  9999
2 37948  47.8149 272.4589 0109539 220.8427 142.8662  1.00265759 52398
BEIDOU-2 G5             
1 38091U 12008A   26095.18615262  .00000058  00000+0  00000+0 0  9996
2 38091   3.3924  70.1158 0013180 261.3911 347.7894  1.00276225 51634
BEIDOU-2 M3             
1 38250U 12018A   26094.08855807 -.00000064  00000+0  00000+0 0  9991
2 38250  55.8207 307.3724 0020184 279.4080  80.3921  1.86229902 94564
BEIDOU-2 M4             
1 38251U 12018B   26094.02075009 -.00000064  00000+0  00000+0 0  9994
2 38251  55.7212 306.5945 0011480 286.2876  73.6134  1.86229532 94564
BEIDOU-2 M6             
1 38775U 12050B   26094.80463637 -.00000040  00000+0  00000+0 0  9999
2 38775  56.4825  65.3192 0014456 345.2296  14.7002  1.86231043 91944
BEIDOU-2 G6             
1 38953U 12059A   26095.04852539 -.00000173  00000+0  00000+0 0  9993
2 38953   4.2370  74.2924 0010927 311.7479 268.8374  1.00271726 49170
BEIDOU-3S IGSO-1S       
1 40549U 15019A   26082.29086919 -.00000163  00000+0  00000+0 0  9999
2 40549  49.3559 296.4949 0036261 190.1236 255.1180  1.00268843 40213
BEIDOU-3S M2S           
1 40748U 15037A   26093.68736214 -.00000064  00000+0  00000+0 0  9995
2 40748  54.9362 304.6107 0007866 276.2364  83.6984  1.86232009 72730
BEIDOU-3S M1S           
1 40749U 15037B   26093.90388687 -.00000063  00000+0  00000+0 0  9997
2 40749  54.9325 304.5916 0004693  43.1589 316.9018  1.86254958 72740
BEIDOU-3S IGSO-2S       
1 40938U 15053A   26094.90867057 -.00000141  00000+0  00000+0 0  9996
2 40938  49.3383 259.6493 0062372 189.8511 167.6444  1.00277370 38614
BEIDOU-2 IGSO-6         
1 41434U 16021A   26092.81344461 -.00000170  00000+0  00000+0 0  9993
2 41434  60.1276  38.7875 0058842 233.3821 307.4549  1.00273243 36729
BEIDOU-2 G7             
1 41586U 16037A   26095.26770332 -.00000352  00000+0  00000+0 0  9992
2 41586   1.5403  68.5764 0007507 349.6401 342.1932  1.00277528  6159
